H1 CPF 01  gfz 2022 08 31 00  7431 terrasarx 
H2 0702601  6201 31698    2022 08 31 00 59 42 2022 09 05 00 00 42   120 1 1  0 0 0
H9
10 0 59826  22302.000000  0     486899.915   -914284.931  -6816856.038
10 0 59826  22422.000000  0    -430189.036   -871482.777  -6826241.866
10 0 59826  22542.000000  0   -1338806.638   -797615.692  -6716589.237
10 0 59826  22662.000000  0   -2222685.390   -694250.246  -6489783.193
10 0 59826  22782.000000  0   -3066004.847   -563742.290  -6149725.593
10 0 59826  22902.000000  0   -3853668.351   -409188.200  -5702275.458
10 0 59826  23022.000000  0   -4571572.554   -234358.764  -5155159.451
10 0 59826  23142.000000  0   -5206862.218    -43616.725  -4517849.129
10 0 59826  23262.000000  0   -5748166.507    158180.126  -3801409.159
10 0 59826  23382.000000  0   -6185813.396    365790.061  -3018314.892
10 0 59826  23502.000000  0   -6512014.838    573709.474  -2182241.565
10 0 59826  23622.000000  0   -6721018.468    776304.363  -1307828.276
10 0 59826  23742.000000  0   -6809222.733    967946.686   -410420.378
10 0 59826  23862.000000  0   -6775248.301   1143153.007    494206.727
10 0 59826  23982.000000  0   -6619964.459   1296721.733   1390131.294
10 0 59826  24102.000000  0   -6346472.449   1423865.858   2261573.782
10 0 59826  24222.000000  0   -5960043.151   1520337.156   3093184.310
10 0 59826  24342.000000  0   -5468010.201   1582538.329   3870321.437
10 0 59826  24462.000000  0   -4879622.034   1607620.446   4579315.010
10 0 59826  24582.000000  0   -4205858.335   1593563.576   5207708.114
10 0 59826  24702.000000  0   -3459216.159   1539238.800   5744474.565
10 0 59826  24822.000000  0   -2653470.336   1444450.422   6180209.743
10 0 59826  24942.000000  0   -1803411.532   1309957.943   6507291.451
10 0 59826  25062.000000  0    -924568.517   1137476.339   6720006.291
10 0 59826  25182.000000  0     -32922.364    929655.666   6814642.307
10 0 59826  25302.000000  0     855383.586    690040.220   6789549.194
10 0 59826  25422.000000  0    1724334.723    423008.044   6645165.118
10 0 59826  25542.000000  0    2558332.499    133691.662   6384009.798
10 0 59826  25662.000000  0    3342474.407   -172119.262   6010644.607
10 0 59826  25782.000000  0    4062822.705   -488091.848   5531597.694
10 0 59826  25902.000000  0    4706655.938   -807478.454   4955255.546
10 0 59826  26022.000000  0    5262700.067  -1123257.571   4291722.470
10 0 59826  26142.000000  0    5721334.144  -1428284.269   3552647.938
10 0 59826  26262.000000  0    6074766.538  -1715447.608   2751024.473
10 0 59826  26382.000000  0    6317176.574  -1977830.782   1900958.459
10 0 59826  26502.000000  0    6444818.028  -2208870.502   1017418.634
10 0 59826  26622.000000  0    6456081.921  -2402511.748    115966.264
10 0 59826  26742.000000  0    6351515.895  -2553353.546   -787527.539
10 0 59826  26862.000000  0    6133800.027  -2656781.693  -1677170.565
10 0 59826  26982.000000  0    5807678.558  -2709085.865  -2537337.625
10 0 59826  27102.000000  0    5379851.132  -2707556.868  -3352950.914
10 0 59826  27222.000000  0    4858827.016  -2650562.737  -4109746.974
10 0 59826  27342.000000  0    4254746.908  -2537602.754  -4794525.837
10 0 59826  27462.000000  0    3579175.219  -2369337.544  -5395377.723
10 0 59826  27582.000000  0    2844869.539  -2147594.780  -5901881.412
10 0 59826  27702.000000  0    2065535.620  -1875351.850  -6305274.173
10 0 59826  27822.000000  0    1255569.730  -1556695.656  -6598594.033
10 0 59826  27942.000000  0     429792.418  -1196759.571  -6776788.909
10 0 59826  28062.000000  0    -396818.959   -801640.800  -6836793.957
10 0 59826  28182.000000  0   -1209395.886   -378298.573  -6777577.987
10 0 59826  28302.000000  0   -1993440.058     65565.643  -6600159.365
10 0 59826  28422.000000  0   -2735076.100    521644.752  -6307589.388
10 0 59826  28542.000000  0   -3421291.618    981176.781  -5904905.559
10 0 59826  28662.000000  0   -4040163.577   1435108.575  -5399054.945
10 0 59826  28782.000000  0   -4581067.851   1874269.685  -4798785.848
10 0 59826  28902.000000  0   -5034867.273   2289555.539  -4114508.157
10 0 59826  29022.000000  0   -5394073.569   2672114.179  -3358122.156
10 0 59826  29142.000000  0   -5652980.417   3013532.898  -2542819.962
10 0 59826  29262.000000  0   -5807765.107   3306021.905  -1682860.416
10 0 59826  29382.000000  0   -5856554.196   3542590.238   -793320.122
10 0 59826  29502.000000  0   -5799450.457   3717208.680    110174.192
10 0 59826  29622.000000  0   -5638521.329   3824955.762   1011727.046
10 0 59826  29742.000000  0   -5377745.679   3862141.682   1895463.541
10 0 59826  29862.000000  0   -5022921.160   3826407.535   2745817.645
10 0 59826  29982.000000  0   -4581536.679   3716797.635   3547814.062
10 0 59826  30102.000000  0   -4062611.260   3533802.636   4287339.024
10 0 59826  30222.000000  0   -3476504.316   3279371.897   4951391.720
10 0 59826  30342.000000  0   -2834703.119   2956897.282   5528313.729
10 0 59826  30462.000000  0   -2149590.736   2571167.056   6007991.549
10 0 59826  30582.000000  0   -1434201.724   2128291.716   6382029.569
10 0 59826  30702.000000  0    -701969.543   1635603.403   6643889.991
10 0 59826  30822.000000  0      33526.061   1101532.028   6788999.921
10 0 59826  30942.000000  0     758810.554    535459.544   6814826.660
10 0 59826  31062.000000  0    1460760.585    -52444.723   6720918.662
10 0 59826  31182.000000  0    2126840.238   -651405.872   6508913.452
10 0 59826  31302.000000  0    2745324.435  -1250240.425   6182511.470
10 0 59826  31422.000000  0    3305506.748  -1837564.145   5747416.408
10 0 59826  31542.000000  0    3797888.246  -2402008.922   5211241.082
10 0 59826  31662.000000  0    4214342.813  -2932443.386   4583379.886
10 0 59826  31782.000000  0    4548256.726  -3418194.976   3874850.006
10 0 59826  31902.000000  0    4794639.759  -3849268.301   3098101.648
10 0 59826  32022.000000  0    4950205.331  -4216554.298   2266799.587
10 0 59826  32142.000000  0    5013415.743  -4512024.715   1395579.528
10 0 59826  32262.000000  0    4984491.797  -4728907.882    499785.452
10 0 59826  32382.000000  0    4865387.041  -4861841.498   -404807.753
10 0 59826  32502.000000  0    4659726.771  -4906997.460  -1302280.660
10 0 59826  32622.000000  0    4372713.254  -4862175.446  -2176858.576
10 0 59826  32742.000000  0    4010999.440  -4726863.380  -3013196.084
10 0 59826  32862.000000  0    3582534.959  -4502263.358  -3796651.079
10 0 59826  32982.000000  0    3096389.306  -4191283.286  -4513542.520
10 0 59826  33102.000000  0    2562556.227  -3798494.154  -5151387.401
10 0 59826  33222.000000  0    1991744.224  -3330055.146  -5699110.815
10 0 59826  33342.000000  0    1395160.660  -2793610.796  -6147227.825
10 0 59826  33462.000000  0     784291.905  -2198162.001  -6487997.862
10 0 59826  33582.000000  0     170683.198  -1553911.246  -6715548.248
10 0 59826  33702.000000  0    -434276.163   -872086.404  -6825964.683
10 0 59826  33822.000000  0   -1019558.713   -164747.037  -6817350.400
10 0 59826  33942.000000  0   -1574694.974    555424.188  -6689854.723
10 0 59826  34062.000000  0   -2089956.469   1275342.930  -6445670.309
10 0 59826  34182.000000  0   -2556522.214   1981755.020  -6088999.531
10 0 59826  34302.000000  0   -2966628.158   2661474.780  -5625990.546
10 0 59826  34422.000000  0   -3313697.248   3301628.527  -5064642.625
10 0 59826  34542.000000  0   -3592448.613   3889898.555  -4414679.797
10 0 59826  34662.000000  0   -3798982.526   4414762.839  -3687392.244
10 0 59826  34782.000000  0   -3930837.618   4865724.712  -2895448.131
10 0 59826  34902.000000  0   -3987020.766   5233528.240  -2052679.818
10 0 59826  35022.000000  0   -3968009.536   5510354.905  -1173845.657
10 0 59826  35142.000000  0   -3875724.769   5689997.000   -274370.014
10 0 59826  35262.000000  0   -3713472.644   5767999.402    629933.029
10 0 59826  35382.000000  0   -3485859.490   5741768.053   1523145.087
10 0 59826  35502.000000  0   -3198678.717   5610642.196   2389534.131
10 0 59826  35622.000000  0   -2858772.425   5375925.113   3213841.760
10 0 59826  35742.000000  0   -2473873.376   5040874.376   3981558.229
10 0 59826  35862.000000  0   -2052431.508   4610654.085   4679181.968
10 0 59826  35982.000000  0   -1603429.386   4092249.355   5294458.704
10 0 59826  36102.000000  0   -1136190.288   3494345.261   5816596.145
10 0 59826  36222.000000  0    -660184.194   2827173.034   6236448.979
10 0 59826  36342.000000  0    -184836.300   2102328.022   6546672.903
10 0 59826  36462.000000  0     280658.382   1332564.320   6741846.964
10 0 59826  36582.000000  0     727512.263    531567.324   6818563.090
10 0 59826  36702.000000  0    1147509.960   -286289.647   6775480.839
10 0 59826  36822.000000  0    1533158.378  -1106202.253   6613350.415
10 0 59826  36942.000000  0    1877820.297  -1913202.672   6335000.592
10 0 59826  37062.000000  0    2175829.150  -2692432.465   5945293.282
10 0 59826  37182.000000  0    2422583.575  -3429417.836   5451043.927
10 0 59826  37302.000000  0    2614619.601  -4110341.403   4860907.510
10 0 59826  37422.000000  0    2749659.235  -4722305.644   4185232.979
10 0 59826  37542.000000  0    2826635.770  -5253584.122   3435885.875
10 0 59826  37662.000000  0    2845693.410  -5693853.907   2626041.765
10 0 59826  37782.000000  0    2808161.305  -6034404.627   1769953.254
10 0 59826  37902.000000  0    2716501.839  -6268316.399    882694.919
10 0 59826  38022.000000  0    2574236.367  -6390604.813    -20106.930
10 0 59826  38142.000000  0    2385848.888  -6398329.694   -922557.696
10 0 59826  38262.000000  0    2156668.842  -6290661.026  -1808784.900
10 0 59826  38382.000000  0    1892736.889  -6068902.056  -2663224.955
10 0 59826  38502.000000  0    1600657.031  -5736470.414  -3470904.194
10 0 59826  38622.000000  0    1287439.072  -5298833.443  -4217703.536
10 0 59826  38742.000000  0     960338.528  -4763406.648  -4890603.675
99
